[{"OBJECT_NAME":"STARLINK-35439","OBJECT_ID":"2025-259K","EPOCH":"2026-03-09T22:47:37.272480","MEAN_MOTION":15.27602329,"ECCENTRICITY":0.00011733,"INCLINATION":43.0027,"RA_OF_ASC_NODE":272.6558,"ARG_OF_PERICENTER":24.4646,"MEAN_ANOMALY":335.6262,"EPHEMERIS_TYPE":0,"CLASSIFICATION_TYPE":"U","NORAD_CAT_ID":66431,"ELEMENT_SET_NO":999,"REV_AT_EPOCH":1953,"BSTAR":0.0011824295,"MEAN_MOTION_DOT":0.00032441,"MEAN_MOTION_DDOT":0},{"OBJECT_NAME":"KUIPER-00276","OBJECT_ID":"2026-030AG","EPOCH":"2026-03-09T22:00:01.999584","MEAN_MOTION":15.30162454,"ECCENTRICITY":0.00186471,"INCLINATION":51.8824,"RA_OF_ASC_NODE":218.7283,"ARG_OF_PERICENTER":66.9346,"MEAN_ANOMALY":101.1527,"EPHEMERIS_TYPE":0,"CLASSIFICATION_TYPE":"U","NORAD_CAT_ID":67794,"ELEMENT_SET_NO":999,"REV_AT_EPOCH":482,"BSTAR":0.0021152378,"MEAN_MOTION_DOT":0.00063116,"MEAN_MOTION_DDOT":0}]
